{"type": "FeatureCollection", "features": [ {"type": "Feature", "properties": {"norad_id": 40115, "name": "WORLDVIEW-3 (WV-3)", "group": "resource", "lat": 4.127412530886358, "lon": -121.47270952973535, "alt_km": 611.3119823512607, "timestamp": "2025-12-11T15:53:39.199263+00:00", "meta": {"OBJECT_NAME": "WORLDVIEW-3 (WV-3)", "OBJECT_ID": "2014-048A", "EPOCH": "2025-12-11T05:24:21.657024", "MEAN_MOTION": 14.85505154, "ECCENTRICITY": 0.00046329, "INCLINATION": 97.8617, "RA_OF_ASC_NODE": 57.5245, "ARG_OF_PERICENTER": 189.864, "MEAN_ANOMALY": 170.2485, "EPHEMERIS_TYPE": 0, "CLASSIFICATION_TYPE": "U", "NORAD_CAT_ID": 40115, "ELEMENT_SET_NO": 999, "REV_AT_EPOCH": 61401, "BSTAR": 0.00020745929, "MEAN_MOTION_DOT": 1.738e-05, "MEAN_MOTION_DDOT": 0}, "tle": {"line1": "1 40115U 14048A   25345.22525066  .00001738  00000+0  20746-3 0  9995", "line2": "2 40115  97.8617  57.5245 0004632 189.8640 170.2485 14.85505154614017"}}, "geometry": {"type": "Point", "coordinates": [-121.47270952973535, 4.127412530886358]}}, {"type": "Feature", "properties": {"norad_id": 40118, "name": "GAOFEN-2", "group": "resource", "lat": 11.764065423484134, "lon": 43.14186328278973, "alt_km": 630.1917017664864, "timestamp": "2025-12-11T15:53:39.199274+00:00", "meta": {"OBJECT_NAME": "GAOFEN-2", "OBJECT_ID": "2014-049A", "EPOCH": "2025-12-11T07:43:51.434112", "MEAN_MOTION": 14.80603994, "ECCENTRICITY": 0.00085241, "INCLINATION": 98.0381, "RA_OF_ASC_NODE": 44.4876, "ARG_OF_PERICENTER": 116.8392, "MEAN_ANOMALY": 243.3693, "EPHEMERIS_TYPE": 0, "CLASSIFICATION_TYPE": "U", "NORAD_CAT_ID": 40118, "ELEMENT_SET_NO": 999, "REV_AT_EPOCH": 61143, "BSTAR": 0.00017794588, "MEAN_MOTION_DOT": 1.313e-05, "MEAN_MOTION_DDOT": 0}, "tle": {"line1": "1 40118U 14049A   25345.32212308  .00001313  00000+0  17795-3 0  9991", "line2": "2 40118  98.0381  44.4876 0008524 116.8392 243.3693 14.80603994611436"}}, "geometry": {"type": "Point", "coordinates": [43.14186328278973, 11.764065423484134]}}, {"type": "Feature", "properties": {"norad_id": 40143, "name": "YAOGAN-21", "group": "resource", "lat": 10.853203907682405, "lon": -149.59427193708152, "alt_km": 500.1605603889011, "timestamp": "2025-12-11T15:53:39.199284+00:00", "meta": {"OBJECT_NAME": "YAOGAN-21", "OBJECT_ID": "2014-053A", "EPOCH": "2025-12-11T07:16:29.929152", "MEAN_MOTION": 15.23650793, "ECCENTRICITY": 0.00098544, "INCLINATION": 97.1757, "RA_OF_ASC_NODE": 28.6781, "ARG_OF_PERICENTER": 46.4566, "MEAN_ANOMALY": 313.7488, "EPHEMERIS_TYPE": 0, "CLASSIFICATION_TYPE": "U", "NORAD_CAT_ID": 40143, "ELEMENT_SET_NO": 999, "REV_AT_EPOCH": 62632, "BSTAR": 0.00036171857, "MEAN_MOTION_DOT": 8.617e-05, "MEAN_MOTION_DDOT": 0}, "tle": {"line1": "1 40143U 14053A   25345.30312418  .00008617  00000+0  36172-3 0  9999", "line2": "2 40143  97.1757  28.6781 0009854  46.4566 313.7488 15.23650793626323"}}, "geometry": {"type": "Point", "coordinates": [-149.59427193708152, 10.853203907682405]}}, {"type": "Feature", "properties": {"norad_id": 40275, "name": "YAOGAN-22", "group": "resource", "lat": 79.25055618796276, "lon": 40.0046838852011, "alt_km": 1198.690356802189, "timestamp": "2025-12-11T15:53:39.199294+00:00", "meta": {"OBJECT_NAME": "YAOGAN-22", "OBJECT_ID": "2014-063A", "EPOCH": "2025-12-11T06:18:45.851616", "MEAN_MOTION": 13.15522615, "ECCENTRICITY": 0.00059483, "INCLINATION": 100.742, "RA_OF_ASC_NODE": 128.6617, "ARG_OF_PERICENTER": 251.9201, "MEAN_ANOMALY": 108.1262, "EPHEMERIS_TYPE": 0, "CLASSIFICATION_TYPE": "U", "NORAD_CAT_ID": 40275, "ELEMENT_SET_NO": 999, "REV_AT_EPOCH": 53510, "BSTAR": 7.1617417e-05, "MEAN_MOTION_DOT": -2e-07, "MEAN_MOTION_DDOT": 0}, "tle": {"line1": "1 40275U 14063A   25345.26303069 -.00000020  00000+0  71617-4 0  9998", "line2": "2 40275 100.7420 128.6617 0005948 251.9201 108.1262 13.15522615535106"}}, "geometry": {"type": "Point", "coordinates": [40.0046838852011, 79.25055618796276]}}, {"type": "Feature", "properties": {"norad_id": 40298, "name": "ASNARO", "group": "resource", "lat": -52.40066681061119, "lon": -128.0345906828997, "alt_km": 515.6384488627973, "timestamp": "2025-12-11T15:53:39.199304+00:00", "meta": {"OBJECT_NAME": "ASNARO", "OBJECT_ID": "2014-070A", "EPOCH": "2025-12-11T06:58:11.654688", "MEAN_MOTION": 15.19446333, "ECCENTRICITY": 0.00053905, "INCLINATION": 97.3648, "RA_OF_ASC_NODE": 61.2719, "ARG_OF_PERICENTER": 126.1491, "MEAN_ANOMALY": 234.0243, "EPHEMERIS_TYPE": 0, "CLASSIFICATION_TYPE": "U", "NORAD_CAT_ID": 40298, "ELEMENT_SET_NO": 999, "REV_AT_EPOCH": 61547, "BSTAR": 0.00085455456, "MEAN_MOTION_DOT": 0.00018083, "MEAN_MOTION_DDOT": 0}, "tle": {"line1": "1 40298U 14070A   25345.29041267  .00018083  00000+0  85455-3 0  9994", "line2": "2 40298  97.3648  61.2719 0005390 126.1491 234.0243 15.19446333615479"}}, "geometry": {"type": "Point", "coordinates": [-128.0345906828997, -52.40066681061119]}}, {"type": "Feature", "properties": {"norad_id": 40310, "name": "YAOGAN-24", "group": "resource", "lat": 12.588410616453627, "lon": 114.92170669146812, "alt_km": 649.0576665353383, "timestamp": "2025-12-11T15:53:39.199315+00:00", "meta": {"OBJECT_NAME": "YAOGAN-24", "OBJECT_ID": "2014-072A", "EPOCH": "2025-12-11T07:42:09.362016", "MEAN_MOTION": 14.76170959, "ECCENTRICITY": 0.00146734, "INCLINATION": 98.1224, "RA_OF_ASC_NODE": 116.4063, "ARG_OF_PERICENTER": 142.3536, "MEAN_ANOMALY": 217.8703, "EPHEMERIS_TYPE": 0, "CLASSIFICATION_TYPE": "U", "NORAD_CAT_ID": 40310, "ELEMENT_SET_NO": 999, "REV_AT_EPOCH": 59600, "BSTAR": 0.0001917482, "MEAN_MOTION_DOT": 1.275e-05, "MEAN_MOTION_DDOT": 0}, "tle": {"line1": "1 40310U 14072A   25345.32094169  .00001275  00000+0  19175-3 0  9995", "line2": "2 40310  98.1224 116.4063 0014673 142.3536 217.8703 14.76170959596009"}}, "geometry": {"type": "Point", "coordinates": [114.92170669146812, 12.588410616453627]}}, {"type": "Feature", "properties": {"norad_id": 40336, "name": "CBERS 4", "group": "resource", "lat": -81.6083025250002, "lon": 127.0581615042324, "alt_km": 781.7789776231048, "timestamp": "2025-12-11T15:53:39.199325+00:00", "meta": {"OBJECT_NAME": "CBERS 4", "OBJECT_ID": "2014-079A", "EPOCH": "2025-12-11T06:16:17.576256", "MEAN_MOTION": 14.35516712, "ECCENTRICITY": 0.00016416, "INCLINATION": 98.3306, "RA_OF_ASC_NODE": 43.3285, "ARG_OF_PERICENTER": 114.421, "MEAN_ANOMALY": 245.7147, "EPHEMERIS_TYPE": 0, "CLASSIFICATION_TYPE": "U", "NORAD_CAT_ID": 40336, "ELEMENT_SET_NO": 999, "REV_AT_EPOCH": 57699, "BSTAR": 8.0046424e-05, "MEAN_MOTION_DOT": 1.88e-06, "MEAN_MOTION_DDOT": 0}, "tle": {"line1": "1 40336U 14079A   25345.26131454  .00000188  00000+0  80046-4 0  9990", "line2": "2 40336  98.3306  43.3285 0001641 114.4210 245.7147 14.35516712576998"}}, "geometry": {"type": "Point", "coordinates": [127.0581615042324, -81.6083025250002]}}, {"type": "Feature", "properties": {"norad_id": 40362, "name": "YAOGAN-26", "group": "resource", "lat": -3.3416042210961185, "lon": 165.95957955791712, "alt_km": 455.75957965363614, "timestamp": "2025-12-11T15:53:39.199335+00:00", "meta": {"OBJECT_NAME": "YAOGAN-26", "OBJECT_ID": "2014-088A", "EPOCH": "2025-12-11T05:44:22.057152", "MEAN_MOTION": 15.3921601, "ECCENTRICITY": 0.00064627, "INCLINATION": 97.0646, "RA_OF_ASC_NODE": 345.9664, "ARG_OF_PERICENTER": 33.7909, "MEAN_ANOMALY": 326.3748, "EPHEMERIS_TYPE": 0, "CLASSIFICATION_TYPE": "U", "NORAD_CAT_ID": 40362, "ELEMENT_SET_NO": 999, "REV_AT_EPOCH": 60871, "BSTAR": 0.00081104563, "MEAN_MOTION_DOT": 0.0003157, "MEAN_MOTION_DDOT": 0}, "tle": {"line1": "1 40362U 14088A   25345.23914418  .00031570  00000+0  81105-3 0  9990", "line2": "2 40362  97.0646 345.9664 0006462  33.7909 326.3748 15.39216010608718"}}, "geometry": {"type": "Point", "coordinates": [165.95957955791712, -3.3416042210961185]}}, {"type": "Feature", "properties": {"norad_id": 40376, "name": "SMAP", "group": "resource", "lat": 5.811316043061583, "lon": -10.431875085246851, "alt_km": 684.4848925861988, "timestamp": "2025-12-11T15:53:39.199345+00:00", "meta": {"OBJECT_NAME": "SMAP", "OBJECT_ID": "2015-003A", "EPOCH": "2025-12-11T06:01:16.024224", "MEAN_MOTION": 14.63342507, "ECCENTRICITY": 0.00012018, "INCLINATION": 98.1292, "RA_OF_ASC_NODE": 349.9962, "ARG_OF_PERICENTER": 89.3802, "MEAN_ANOMALY": 270.7538, "EPHEMERIS_TYPE": 0, "CLASSIFICATION_TYPE": "U", "NORAD_CAT_ID": 40376, "ELEMENT_SET_NO": 999, "REV_AT_EPOCH": 58013, "BSTAR": 0.00019975051, "MEAN_MOTION_DOT": 9.85e-06, "MEAN_MOTION_DDOT": 0}, "tle": {"line1": "1 40376U 15003A   25345.25087991  .00000985  00000+0  19975-3 0  9994", "line2": "2 40376  98.1292 349.9962 0001201  89.3802 270.7538 14.63342507580133"}}, "geometry": {"type": "Point", "coordinates": [-10.431875085246851, 5.811316043061583]}}, {"type": "Feature", "properties": {"norad_id": 40536, "name": "KOMPSAT-3A", "group": "resource", "lat": 72.59294969944618, "lon": 165.44054823685988, "alt_km": 424.7230576650836, "timestamp": "2025-12-11T15:53:39.199355+00:00", "meta": {"OBJECT_NAME": "KOMPSAT-3A", "OBJECT_ID": "2015-014A", "EPOCH": "2025-12-11T04:32:58.454880", "MEAN_MOTION": 15.43853225, "ECCENTRICITY": 0.00047806, "INCLINATION": 97.6791, "RA_OF_ASC_NODE": 319.4503, "ARG_OF_PERICENTER": 130.9421, "MEAN_ANOMALY": 229.224, "EPHEMERIS_TYPE": 0, "CLASSIFICATION_TYPE": "U", "NORAD_CAT_ID": 40536, "ELEMENT_SET_NO": 999, "REV_AT_EPOCH": 59271, "BSTAR": 0.00062486695, "MEAN_MOTION_DOT": 0.00028323, "MEAN_MOTION_DDOT": 0}, "tle": {"line1": "1 40536U 15014A   25345.18956545  .00028323  00000+0  62487-3 0  9998", "line2": "2 40536  97.6791 319.4503 0004780 130.9421 229.2240 15.43853225592716"}}, "geometry": {"type": "Point", "coordinates": [165.44054823685988, 72.59294969944618]}}]}